0 COSMOS 1523
1 14612U 84001B   13282.49143459  .00000017  00000-0  19438-3 0  2698
2 14612 074.0019 119.6223 0041228 077.4676 295.8078 12.58580437367496
0 COSMOS 1523
1 14612U 84001B   13286.97640881 -.00000008  00000-0  48025-4 0  2715
2 14612 074.0018 113.5559 0041265 070.5481 096.8177 12.58581029368059
0 COSMOS 1523
1 14612U 84001B   13289.11122604 -.00000036  00000-0 -11456-3 0  2722
2 14612 074.0020 110.6683 0041285 067.2285 049.5081 12.58581286368329
0 COSMOS 1523
1 14612U 84001B   13291.16236324 -.00000025  00000-0 -52454-4 0  2738
2 14612 074.0024 107.8939 0041306 064.0590 343.0339 12.58581273368585
0 COSMOS 1523
1 14612U 84001B   13293.47761623 -.00000012  00000-0  27411-4 0  2740
2 14612 074.0027 104.7624 0041271 060.4762 033.2502 12.58581008368875
0 COSMOS 1523
1 14612U 84001B   13295.95795067  .00000015  00000-0  18000-3 0  2750
2 14612 074.0028 101.4076 0041290 056.6305 111.4432 12.58580873369187
